#aV2015  5 31  0  0  0.00000000     288 DD+AD WGS84 FIT  NGA
## 1847      0.00000000   300.00000000 57173 0.0000000000000
+   31     1  2  3  4  5  6  7  9 10 11 12 13 14 15 16 17 18
+         19 20 21 22 23 24 25 26 27 28 29 30 31 32  0  0  0
+          0  0  0  0  0  0  0  0  0  0  0  0  0  0  0  0  0
+          0  0  0  0  0  0  0  0  0  0  0  0  0  0  0  0  0
+          0  0  0  0  0  0  0  0  0  0  0  0  0  0  0  0  0
++         2  2  2  2  2  2  2  2  2  2  2  2  2  2  2  2  2
++         2  2  2  2  2  2  2  2  2  2  2  2  2  2  0  0  0
++         0  0  0  0  0  0  0  0  0  0  0  0  0  0  0  0  0
++         0  0  0  0  0  0  0  0  0  0  0  0  0  0  0  0  0
++         0  0  0  0  0  0  0  0  0  0  0  0  0  0  0  0  0
%c cc cc ccc ccc cccc cccc cccc cccc ccccc ccccc ccccc ccccc
%c cc cc ccc ccc cccc cccc cccc cccc ccccc ccccc ccccc ccccc
%f  0.0000000  0.000000000  0.00000000000  0.000000000000000
%f  0.0000000  0.000000000  0.00000000000  0.000000000000000
%i    0    0    0    0      0      0      0      0         0
%i    0    0    0    0      0      0      0      0         0
/*      NGA, ST. LOUIS,MO.                                  
/*   EPHEMERIS COMPUTED FROM  1 DAYS OF DATA                
/*   EPOCHA SMOOTHER                                       
/* CCCCCCCCCCCCCCCCCCCCCCCCCCCCCCCCCCCCCCCCCCCCCCCCCCCCCCCCC
*  2015  5 31  5 15  0.00000000
P  1   2522.729785  15076.934453 -21761.907537     -4.900295                    
V  1 -26469.402360   7530.226283   2341.347365      0.004865                    
P  2  18315.715737 -15179.046833  11701.126054    569.140315                    
V  2  14752.972294  -1653.795485 -26508.546928      0.023312                    
P  3  10954.726249  21289.057615 -11444.319966    340.085887                    
V  3 -12321.084826  -8165.327416 -26982.479124      0.085229                    
P  4  -7558.013886  17083.090453 -19107.778703    -16.986805                    
V  4 -23132.661594   5626.853449  14693.406920     -0.016617                    
P  5   7857.328313 -13657.685561  21313.931622   -235.117908                    
V  5  20363.961393  18122.823681   4280.614634      0.045412                    
P  6  25711.914041  -6310.338254  -2094.333707    173.407942                    
V  6  -1734.403195   3438.365133 -31633.300878      0.089485                    
P  7  17293.663824   8433.248419  18573.637206    465.653857                    
V  7 -22080.518982   7249.702579  16996.293442      0.024488                    
P  9   8978.996803  17364.844226  17965.506148   -164.164681                    
V  9  -6716.413650  21895.126865 -17815.129518     -0.053504                    
P 10  21070.075704   4602.118190  15385.017035   -177.050530                    
V 10  13023.443937  15500.773353 -21502.551832     -0.014799                    
P 11  -1475.440120  19544.811170 -18408.288775   -581.817905                    
V 11 -19549.313774  11647.046213  14481.389766     -0.025730                    
P 12  -7871.640862 -21329.000052 -14016.308907    297.436432                    
V 12  13106.794095  11648.942191 -25055.652404      0.031774                    
P 13  12804.928879 -22281.635016   6815.512715   -119.135143                    
V 13   -873.236971   9027.754683  30398.924749     -0.033876                    
P 14 -15791.237809   1904.909429 -21002.181213     59.557490                    
V 14   7479.254768 -26207.767388  -8060.235883     -0.027988                    
P 15   2951.012597 -26112.710046  -2460.438358   -252.259637                    
V 15   4412.302382  -2299.690211  31139.137944     -0.021573                    
P 16  -8508.353976  12022.290915  21992.935515   -123.791241                    
V 16 -19450.328111 -20244.752254   3890.727720      0.038294                    
P 17  15508.310801  -1921.866005 -21151.804512   -173.694641                    
V 17  -6793.423517  26706.666285  -7506.733973     -0.018848                    
P 18 -21601.752888 -14910.564793  -4486.150099    405.613612                    
V 18  -2216.757288  -6939.033445  30054.397715      0.029590                    
P 19  -7692.071241  25138.451201  -1038.026436   -512.001047                    
V 19  -3126.292312    112.982468  32231.375372     -0.010963                    
P 20    471.915553 -18182.218136  19181.207187    325.079708                    
V 20  20385.499331  14303.206095  13032.625046      0.036033                    
P 21 -19342.608826  -7412.725211  17519.585018   -450.978702                    
V 21  19311.862930  -8059.988541  18314.880618     -0.034627                    
P 22 -21623.393673  -4630.484752 -14600.649633    355.960076                    
V 22 -12181.627458 -14841.255599  22209.473804      0.041324                    
P 23   2148.714096  24047.952399  10698.885810   -111.789154                    
V 23  -6134.988836  12459.646261 -27586.264579     -0.024334                    
P 24    595.883925 -16002.648907 -21206.121341    -49.159162                    
V 24  25820.598746  -7541.703463   6571.624364     -0.006392                    
P 25 -17828.342983 -19583.867387  -3086.267704    -34.700807                    
V 25   4184.880589   1051.587771 -31710.210552     -0.039861                    
P 26 -16615.001368   3949.419961  20332.185041     30.692481                    
V 26 -18199.876178 -18373.011579 -11292.219784     -0.002315                    
P 27 -12180.060547  21140.504775  10335.732439     75.760573                    
V 27    637.871731 -13377.879605  28179.219030      0.027163                    
P 28  20759.190779  10755.119374 -12066.320307    443.527203                    
V 28   9757.966500  13089.916574  26997.514380      0.026388                    
P 29  -6586.856500 -19181.559301  17200.401073    613.777843                    
V 29   7495.197620 -20464.599208 -19928.300410      0.022356                    
P 30  24421.725659   2015.480902  10319.455296    -51.627882                    
V 30 -12231.421989   5367.536062  27798.016244      0.059659                    
P 31 -25484.241111   7979.301327   1662.629962    314.364187                    
V 31  -2401.378656  -1499.707247 -31749.703835     -0.011016                    
P 32  -2559.051053  18080.219684 -19483.986730   -137.607769                    
V 32 -17325.705894 -17470.471041 -13412.461789      0.096701                    
EOF
